NORAD_CAT_ID,OBJECT_NAME,OBJECT_TYPE,EPOCH,MEAN_MOTION,ECCENTRICITY,INCLINATION,RA_OF_ASC_NODE,ARG_OF_PERICENTER,MEAN_ANOMALY,BSTAR,MEAN_MOTION_DOT,MEAN_MOTION_DDOT,TLE_LINE0,TLE_LINE1,TLE_LINE2,SEMIMAJOR_AXIS,PERIOD,APOGEE,PERIGEE,DECAYED
53575.0,STARLINK-4551,PAYLOAD,2023-01-09 21:31:19,15.08842845,0.0001655,53.2156,197.9724,62.052,298.064,-3.2983e-05,-8.13e-06,0.0,0 STARLINK-4551,1 53575U 22101BA  23009.89675612 -.00000813  00000-0 -32983-4 0  9992,2 53575  53.2156 197.9724 0001655  62.0520 298.0640 15.08842845 22806,6917.871999999999,95.437,540.882,538.592,0.0
53575.0,STARLINK-4551,PAYLOAD,2023-01-10 11:49:47,15.08837662,0.0001651,53.2156,195.2961,65.6962,294.4203,0.00013036,1.787e-05,0.0,0 STARLINK-4551,1 53575U 22101BA  23010.49291633  .00001787  00000-0  13036-3 0  9993,2 53575  53.2156 195.2961 0001651  65.6962 294.4203 15.08837662 22890,6917.888000000001,95.438,540.895,538.61,0.0
53575.0,STARLINK-4551,PAYLOAD,2023-01-10 18:11:20,15.08840788,0.0001651,53.2155,194.1066,66.8193,293.2973,0.00014353,1.997e-05,0.0,0 STARLINK-4551,1 53575U 22101BA  23010.75787390  .00001997  00000-0  14353-3 0  9998,2 53575  53.2155 194.1066 0001651  66.8193 293.2973 15.08840788 22245,6917.8780000000015,95.438,540.885,538.601,0.0
53575.0,STARLINK-4551,PAYLOAD,2023-01-11 05:19:02,15.08841835,0.00016,53.2153,192.0258,65.9432,294.1727,7.9767e-05,9.82e-06,0.0,0 STARLINK-4551,1 53575U 22101BA  23011.22155541  .00000982  00000-0  79767-4 0  9992,2 53575  53.2153 192.0258 0001600  65.9432 294.1727 15.08841835 23009,6917.875,95.437,540.847,538.633,0.0
53575.0,STARLINK-4551,PAYLOAD,2023-01-11 14:51:22,15.08835967,0.0002226,53.2152,190.2395,73.1352,286.9884,-5.6024e-06,-3.77e-06,0.0,0 STARLINK-4551,1 53575U 22101BA  23011.61900465 -.00000377  00000-0 -56024-5 0  9990,2 53575  53.2152 190.2395 0002226  73.1352 286.9884 15.08835967 22378,6917.893,95.438,541.298,538.2180000000002,0.0
53575.0,STARLINK-4551,PAYLOAD,2023-01-11 21:12:54,15.08837517,0.0001405,53.2174,189.0473,86.6128,273.5025,2.7897e-06,-2.44e-06,0.0,0 STARLINK-4551,1 53575U 22101BA  23011.88396062 -.00000244  00000-0  27897-5 0  9999,2 53575  53.2174 189.0473 0001405  86.6128 273.5025 15.08837517 23107,6917.888000000001,95.438,540.725,538.781,0.0
53575.0,STARLINK-4551,PAYLOAD,2023-01-12 17:52:54,15.08849402,0.0001701,53.216,185.1857,67.755,292.3623,3.5601e-06,-2.31e-06,0.0,0 STARLINK-4551,1 53575U 22101BA  23012.74507237 -.00000231  00000-0  35601-5 0  9991,2 53575  53.2160 185.1857 0001701  67.7550 292.3623 15.08849402 22549,6917.852,95.437,540.893,538.54,0.0
53575.0,STARLINK-4551,PAYLOAD,2023-01-12 19:28:17,15.08859904,0.0001839,53.2156,184.8874,76.6074,283.5123,-0.00010057,-1.889e-05,0.0,0 STARLINK-4551,1 53575U 22101BA  23012.81130896 -.00001889  00000-0 -10057-3 0  9999,2 53575  53.2156 184.8874 0001839  76.6074 283.5123 15.08859904 23244,6917.82,95.436,540.957,538.4119999999998,0.0
53575.0,STARLINK-4551,PAYLOAD,2023-01-13 17:43:41,15.08839687,0.0001754,53.2163,180.7245,75.7173,284.4014,8.617700000000001e-05,1.084e-05,0.0,0 STARLINK-4551,1 53575U 22101BA  23013.73867394  .00001084  00000-0  86177-4 0  9993,2 53575  53.2163 180.7245 0001754  75.7173 284.4014 15.08839687 22698,6917.880999999999,95.438,540.96,538.533,0.0
53575.0,STARLINK-4551,PAYLOAD,2023-01-13 20:54:27,15.08841153,0.0001742,53.2165,180.1297,75.067,285.0514,7.8283e-05,9.58e-06,0.0,0 STARLINK-4551,1 53575U 22101BA  23013.87115334  .00000958  00000-0  78283-4 0  9996,2 53575  53.2165 180.1297 0001742  75.0670 285.0514 15.08841153 23406,6917.877,95.437,540.947,538.5369999999999,0.0
53575.0,STARLINK-4551,PAYLOAD,2023-01-14 20:45:14,15.08841393,0.0001754,53.2165,175.67,83.2331,276.886,1.2912e-05,-8.3e-07,0.0,0 STARLINK-4551,1 53575U 22101BA  23014.86475450 -.00000083  00000-0  12912-4 0  9991,2 53575  53.2165 175.6700 0001754  83.2331 276.8860 15.08841393 22869,6917.876,95.437,540.955,538.528,0.0
53575.0,STARLINK-4551,PAYLOAD,2023-01-15 03:06:47,15.08832678,0.0001669,53.2158,174.4809,75.3225,284.7952,-9.0132e-06,-4.31e-06,0.0,0 STARLINK-4551,1 53575U 22101BA  23015.12972155 -.00000431  00000-0 -90132-5 0  9994,2 53575  53.2158 174.4809 0001669  75.3225 284.7952 15.08832678 22908,6917.903,95.438,540.922,538.613,0.0
53575.0,STARLINK-4551,PAYLOAD,2023-01-15 14:14:29,15.08833995,0.0001763,53.217,172.4003,76.1652,283.9536,2.6256e-05,1.3e-06,0.0,0 STARLINK-4551,1 53575U 22101BA  23015.59340066  .00000130  00000-0  26256-4 0  9994,2 53575  53.2170 172.4003 0001763  76.1652 283.9536 15.08833995 23660,6917.899,95.438,540.9830000000001,538.544,0.0
53575.0,STARLINK-4551,PAYLOAD,2023-01-15 17:25:15,15.08840243,0.0001721999999999,53.2168,171.8056,80.832,279.2867,7.8098e-05,9.55e-06,0.0,0 STARLINK-4551,1 53575U 22101BA  23015.72587502  .00000955  00000-0  78098-4 0  9993,2 53575  53.2168 171.8056 0001722  80.8320 279.2867 15.08840243 22991,6917.88,95.438,540.936,538.553,0.0
53575.0,STARLINK-4551,PAYLOAD,2023-01-16 10:54:30,15.08834854,0.0001392,53.2167,168.5337,82.6173,277.4977,1.2622e-05,-8.7e-07,0.0,0 STARLINK-4551,1 53575U 22101BA  23016.45452147 -.00000087  00000-0  12622-4 0  9998,2 53575  53.2167 168.5337 0001392  82.6173 277.4977 15.08834854 23101,6917.896,95.438,540.724,538.798,0.0
53575.0,STARLINK-4551,PAYLOAD,2023-01-16 18:51:25,15.08845817,0.0001453,53.2174,167.0477,86.3488,273.767,0.00010173,1.332e-05,0.0,0 STARLINK-4551,1 53575U 22101BA  23016.78571193  .00001332  00000-0  10173-3 0  9998,2 53575  53.2174 167.0477 0001453  86.3488 273.7670 15.08845817 23151,6917.863,95.437,540.7330000000001,538.722,0.0
53575.0,STARLINK-4551,PAYLOAD,2023-01-17 02:48:22,15.0883291,0.0001485,53.2165,165.5596,88.8325,271.2838,6.261899999999999e-05,7.09e-06,0.0,0 STARLINK-4551,1 53575U 22101BA  23017.11692170  .00000709  00000-0  62619-4 0  9995,2 53575  53.2165 165.5596 0001485  88.8325 271.2838 15.08832910 23203,6917.901999999999,95.438,540.794,538.74,0.0
53575.0,STARLINK-4551,PAYLOAD,2023-01-17 10:45:18,15.08829067,0.0001575,53.2176,164.0746,93.3419,266.7754,1.9745e-05,2.6e-07,0.0,0 STARLINK-4551,1 53575U 22101BA  23017.44812771  .00000026  00000-0  19745-4 0  9996,2 53575  53.2176 164.0746 0001575  93.3419 266.7754 15.08829067 23947,6917.914000000001,95.438,540.868,538.689,0.0
53575.0,STARLINK-4551,PAYLOAD,2023-01-18 16:57:36,15.08851685,0.0001398,53.2176,158.4232,93.9948,266.1204,9.742e-05,1.263e-05,0.0,0 STARLINK-4551,1 53575U 22101BA  23018.70667265  .00001263  00000-0  97420-4 0  9992,2 53575  53.2176 158.4232 0001398  93.9948 266.1204 15.08851685 23440,6917.845,95.437,540.677,538.743,0.0
53575.0,STARLINK-4551,PAYLOAD,2023-01-19 02:29:55,15.08845385,0.0001564,53.218,156.6393,81.0181,279.0988,-4.9319e-06,-3.67e-06,0.0,0 STARLINK-4551,1 53575U 22101BA  23019.10411811 -.00000367  00000-0 -49319-5 0  9992,2 53575  53.2180 156.6393 0001564  81.0181 279.0988 15.08845385 23504,6917.8640000000005,95.437,540.811,538.6469999999999,0.0
53575.0,STARLINK-4551,PAYLOAD,2023-01-19 08:51:28,15.08834114,0.0001807,53.2171,155.4502,86.2765,273.8434,0.0001216,1.647e-05,0.0,0 STARLINK-4551,1 53575U 22101BA  23019.36908514  .00001647  00000-0  12160-3 0  9993,2 53575  53.2171 155.4502 0001807  86.2765 273.8434 15.08834114 23548,6917.898,95.438,541.013,538.513,0.0
53575.0,STARLINK-4551,PAYLOAD,2023-01-20 11:53:01,15.08851502,0.0001278,53.2173,150.394,92.6994,267.4144,-5.1452e-05,-1.107e-05,0.0,0 STARLINK-4551,1 53575U 22101BA  23020.49515783 -.00001107  00000-0 -51452-4 0  9992,2 53575  53.2173 150.3940 0001278  92.6994 267.4144 15.08851502 23713,6917.845,95.437,540.594,538.826,0.0
53575.0,STARLINK-4551,PAYLOAD,2023-01-21 11:43:49,15.08829668,0.0001304,53.218,145.9378,64.8807,295.232,7.78e-06,-1.64e-06,0.0,0 STARLINK-4551,1 53575U 22101BA  23021.48876889 -.00000164  00000-0  77800-5 0  9996,2 53575  53.2180 145.9378 0001304  64.8807 295.2320 15.08829668 23869,6917.911999999999,95.438,540.679,538.875,0.0
53575.0,STARLINK-4551,PAYLOAD,2023-01-21 16:29:58,15.0883953,0.000107,53.2166,145.0418,90.5821,269.5293,2.236e-05,6.8e-07,0.0,0 STARLINK-4551,1 53575U 22101BA  23021.68748158  .00000068  00000-0  22360-4 0  9997,2 53575  53.2166 145.0418 0001070  90.5821 269.5293 15.08839530 23896,6917.882,95.438,540.487,539.007,0.0
53575.0,STARLINK-4551,PAYLOAD,2023-01-23 00:17:40,15.08848045,0.0001035,53.2175,139.0972,87.6807,272.4304,1.7388e-05,-1.1e-07,0.0,0 STARLINK-4551,1 53575U 22101BA  23023.01227653 -.00000011  00000-0  17388-4 0  9991,2 53575  53.2175 139.0972 0001035  87.6807 272.4304 15.08848045 24096,6917.856,95.437,540.437,539.005,0.0
53575.0,STARLINK-4551,PAYLOAD,2023-01-23 09:50:01,15.08824803,0.0001135,53.2168,137.3119,80.5694,279.5426,1.2799e-05,-8.4e-07,0.0,0 STARLINK-4551,1 53575U 22101BA  23023.40973462 -.00000084  00000-0  12799-4 0  9991,2 53575  53.2168 137.3119 0001135  80.5694 279.5426 15.08824803 24155,6917.927,95.439,540.577,539.007,0.0
53575.0,STARLINK-4551,PAYLOAD,2023-01-24 11:16:10,15.08838321,8.950000000000001e-05,53.218,132.5549,65.8722,294.2364,0.00010608,1.401e-05,0.0,0 STARLINK-4551,1 53575U 22101BA  23024.46956886  .00001401  00000-0  10608-3 0  9998,2 53575  53.2180 132.5549 0000895  65.8722 294.2364 15.08838321 24316,6917.886,95.438,540.37,539.131,0.0
53575.0,STARLINK-4551,PAYLOAD,2023-01-24 14:26:56,15.08848216,0.0001062,53.217,131.9615,76.1312,283.9798,0.00017554,2.508e-05,0.0,0 STARLINK-4551,1 53575U 22101BA  23024.60204062  .00002508  00000-0  17554-3 0  9992,2 53575  53.2170 131.9615 0001062  76.1312 283.9798 15.08848216 24331,6917.855,95.437,540.455,538.986,0.0
53575.0,STARLINK-4551,PAYLOAD,2023-01-25 11:06:58,15.08825247,9.74e-05,53.217,128.0953,89.3961,270.7143,0.00011455,1.535e-05,0.0,0 STARLINK-4551,1 53575U 22101BA  23025.46317932  .00001535  00000-0  11455-3 0  9991,2 53575  53.2170 128.0953 0000974  89.3961 270.7143 15.08825247 24461,6917.925,95.438,540.464,539.117,0.0
